{
  "type": "FeatureCollection",
  "features": [
    {
      "type": "Feature",
      "properties": {
        "norad_id": 34079,
        "name": "IRIDIUM 33 DEB",
        "group": "iridium-33-debris",
        "lat": 28.380064349376656,
        "lon": -174.1492368334412,
        "alt_km": 620.1535397311172,
        "timestamp": "2025-12-14T14:39:29.754116+00:00",
        "meta_object_name": "IRIDIUM 33 DEB",
        "meta_object_id": "1997-051CN",
        "meta_epoch": "2025-12-13T19:20:48.276384",
        "meta_mean_motion": 14.8356913,
        "meta_eccentricity": 0.00054496,
        "meta_inclination": 86.3781,
        "meta_ra_of_asc_node": 8.1776,
        "meta_arg_of_pericenter": 4.7034,
        "meta_mean_anomaly": 172.0319,
        "meta_ephemeris_type": 0,
        "meta_classification_type": "U",
        "meta_norad_cat_id": 34079,
        "meta_element_set_no": 999,
        "meta_rev_at_epoch": 88993,
        "meta_bstar": 0.0017208516,
        "meta_mean_motion_dot": 0.00014216,
        "meta_mean_motion_ddot": 0,
        "tle_line1": "1 34079U 97051CN  25347.80611431  .00014216  00000+0  17209-2 0  9994",
        "tle_line2": "2 34079  86.3781   8.1776 0005449   4.7034 172.0319 14.83569130889937"
      },
      "geometry": {
        "type": "Point",
        "coordinates": [
          -174.1492368334412,
          28.380064349376656
        ]
      }
    },
    {
      "type": "Feature",
      "properties": {
        "norad_id": 34088,
        "name": "IRIDIUM 33 DEB",
        "group": "iridium-33-debris",
        "lat": -64.00852547172764,
        "lon": 22.414610018438808,
        "alt_km": 602.9500006868575,
        "timestamp": "2025-12-14T14:39:29.754126+00:00",
        "meta_object_name": "IRIDIUM 33 DEB",
        "meta_object_id": "1997-051CX",
        "meta_epoch": "2025-12-13T15:20:46.536000",
        "meta_mean_motion": 14.91450641,
        "meta_eccentricity": 0.00058418,
        "meta_inclination": 86.3853,
        "meta_ra_of_asc_node": 30.3107,
        "meta_arg_of_pericenter": 173.407,
        "meta_mean_anomaly": 310.4314,
        "meta_ephemeris_type": 0,
        "meta_classification_type": "U",
        "meta_norad_cat_id": 34088,
        "meta_element_set_no": 999,
        "meta_rev_at_epoch": 88755,
        "meta_bstar": 0.0025953124,
        "meta_mean_motion_dot": 0.00026038,
        "meta_mean_motion_ddot": 0,
        "tle_line1": "1 34088U 97051CX  25347.63942750  .00026038  00000+0  25953-2 0  9996",
        "tle_line2": "2 34088  86.3853  30.3107 0005841 173.4070 310.4314 14.91450641887556"
      },
      "geometry": {
        "type": "Point",
        "coordinates": [
          22.414610018438808,
          -64.00852547172764
        ]
      }
    },
    {
      "type": "Feature",
      "properties": {
        "norad_id": 34091,
        "name": "IRIDIUM 33 DEB",
        "group": "iridium-33-debris",
        "lat": 57.26866009520942,
        "lon": 71.68950165338332,
        "alt_km": 632.8602406092059,
        "timestamp": "2025-12-14T14:39:29.754136+00:00",
        "meta_object_name": "IRIDIUM 33 DEB",
        "meta_object_id": "1997-051DA",
        "meta_epoch": "2025-12-13T17:19:57.788832",
        "meta_mean_motion": 14.81942136,
        "meta_eccentricity": 0.00333563,
        "meta_inclination": 86.3415,
        "meta_ra_of_asc_node": 66.3836,
        "meta_arg_of_pericenter": 289.6815,
        "meta_mean_anomaly": 70.0809,
        "meta_ephemeris_type": 0,
        "meta_classification_type": "U",
        "meta_norad_cat_id": 34091,
        "meta_element_set_no": 999,
        "meta_rev_at_epoch": 87881,
        "meta_bstar": 0.0045703792,
        "meta_mean_motion_dot": 0.00036723,
        "meta_mean_motion_ddot": 0,
        "tle_line1": "1 34091U 97051DA  25347.72219663  .00036723  00000+0  45704-2 0  9998",
        "tle_line2": "2 34091  86.3415  66.3836 0033356 289.6815  70.0809 14.81942136878812"
      },
      "geometry": {
        "type": "Point",
        "coordinates": [
          71.68950165338332,
          57.26866009520942
        ]
      }
    },
    {
      "type": "Feature",
      "properties": {
        "norad_id": 34097,
        "name": "IRIDIUM 33 DEB",
        "group": "iridium-33-debris",
        "lat": -11.72866369283658,
        "lon": -0.20791455889839278,
        "alt_km": 721.7431126660758,
        "timestamp": "2025-12-14T14:39:29.754146+00:00",
        "meta_object_name": "IRIDIUM 33 DEB",
        "meta_object_id": "1997-051DG",
        "meta_epoch": "2025-12-13T23:38:53.687040",
        "meta_mean_motion": 14.34790715,
        "meta_eccentricity": 0.0082418,
        "meta_inclination": 86.2009,
        "meta_ra_of_asc_node": 0.8584,
        "meta_arg_of_pericenter": 358.1458,
        "meta_mean_anomaly": 1.9419,
        "meta_ephemeris_type": 0,
        "meta_classification_type": "U",
        "meta_norad_cat_id": 34097,
        "meta_element_set_no": 999,
        "meta_rev_at_epoch": 87137,
        "meta_bstar": 0.0016921642,
        "meta_mean_motion_dot": 5.004e-05,
        "meta_mean_motion_ddot": 0,
        "tle_line1": "1 34097U 97051DG  25347.98534360  .00005004  00000+0  16922-2 0  9994",
        "tle_line2": "2 34097  86.2009   0.8584 0082418 358.1458   1.9419 14.34790715871373"
      },
      "geometry": {
        "type": "Point",
        "coordinates": [
          -0.20791455889839278,
          -11.72866369283658
        ]
      }
    },
    {
      "type": "Feature",
      "properties": {
        "norad_id": 34145,
        "name": "IRIDIUM 33 DEB",
        "group": "iridium-33-debris",
        "lat": -52.05085098676123,
        "lon": -33.1797424847045,
        "alt_km": 788.2457057607771,
        "timestamp": "2025-12-14T14:39:29.754156+00:00",
        "meta_object_name": "IRIDIUM 33 DEB",
        "meta_object_id": "1997-051DY",
        "meta_epoch": "2025-12-13T23:54:55.550592",
        "meta_mean_motion": 14.42301532,
        "meta_eccentricity": 0.00557549,
        "meta_inclination": 86.2116,
        "meta_ra_of_asc_node": 331.9677,
        "meta_arg_of_pericenter": 89.7905,
        "meta_mean_anomaly": 270.9684,
        "meta_ephemeris_type": 0,
        "meta_classification_type": "U",
        "meta_norad_cat_id": 34145,
        "meta_element_set_no": 999,
        "meta_rev_at_epoch": 87656,
        "meta_bstar": 0.0013273066,
        "meta_mean_motion_dot": 4.482e-05,
        "meta_mean_motion_ddot": 0,
        "tle_line1": "1 34145U 97051DY  25347.99647628  .00004482  00000+0  13273-2 0  9996",
        "tle_line2": "2 34145  86.2116 331.9677 0055754  89.7905 270.9684 14.42301532876566"
      },
      "geometry": {
        "type": "Point",
        "coordinates": [
          -33.1797424847045,
          -52.05085098676123
        ]
      }
    },
    {
      "type": "Feature",
      "properties": {
        "norad_id": 34146,
        "name": "IRIDIUM 33 DEB",
        "group": "iridium-33-debris",
        "lat": -8.502503962579215,
        "lon": -11.582207120892074,
        "alt_km": 745.9674978045014,
        "timestamp": "2025-12-14T14:39:29.754167+00:00",
        "meta_object_name": "IRIDIUM 33 DEB",
        "meta_object_id": "1997-051DZ",
        "meta_epoch": "2025-12-14T00:04:18.817248",
        "meta_mean_motion": 14.49061779,
        "meta_eccentricity": 0.00255883,
        "meta_inclination": 86.284,
        "meta_ra_of_asc_node": 349.2428,
        "meta_arg_of_pericenter": 217.172,
        "meta_mean_anomaly": 205.7661,
        "meta_ephemeris_type": 0,
        "meta_classification_type": "U",
        "meta_norad_cat_id": 34146,
        "meta_element_set_no": 999,
        "meta_rev_at_epoch": 88125,
        "meta_bstar": 0.0011362726,
        "meta_mean_motion_dot": 4.35e-05,
        "meta_mean_motion_ddot": 0,
        "tle_line1": "1 34146U 97051DZ  25348.00299557  .00004350  00000+0  11363-2 0  9996",
        "tle_line2": "2 34146  86.2840 349.2428 0025588 217.1720 205.7661 14.49061779881257"
      },
      "geometry": {
        "type": "Point",
        "coordinates": [
          -11.582207120892074,
          -8.502503962579215
        ]
      }
    },
    {
      "type": "Feature",
      "properties": {
        "norad_id": 34159,
        "name": "IRIDIUM 33 DEB",
        "group": "iridium-33-debris",
        "lat": -4.617673867272009,
        "lon": 47.148349758250426,
        "alt_km": 761.942636789312,
        "timestamp": "2025-12-14T14:39:29.754177+00:00",
        "meta_object_name": "IRIDIUM 33 DEB",
        "meta_object_id": "1997-051EN",
        "meta_epoch": "2025-12-13T15:18:25.992576",
        "meta_mean_motion": 14.38498063,
        "meta_eccentricity": 0.0026,
        "meta_inclination": 86.3513,
        "meta_ra_of_asc_node": 47.8583,
        "meta_arg_of_pericenter": 284.6423,
        "meta_mean_anomaly": 75.1892,
        "meta_ephemeris_type": 0,
        "meta_classification_type": "U",
        "meta_norad_cat_id": 34159,
        "meta_element_set_no": 999,
        "meta_rev_at_epoch": 87972,
        "meta_bstar": 0.00058950971,
        "meta_mean_motion_dot": 1.826e-05,
        "meta_mean_motion_ddot": 0,
        "tle_line1": "1 34159U 97051EN  25347.63780084  .00001826  00000+0  58951-3 0  9998",
        "tle_line2": "2 34159  86.3513  47.8583 0026000 284.6423  75.1892 14.38498063879723"
      },
      "geometry": {
        "type": "Point",
        "coordinates": [
          47.148349758250426,
          -4.617673867272009
        ]
      }
    }
  ]
}